{"type": "FeatureCollection", "features": [ {"type": "Feature", "properties": {"norad_id": 66489, "name": "STARLINK-35696", "group": "last-30-days", "lat": 14.306715008115395, "lon": -171.45255097136032, "alt_km": 367.4265265722497, "timestamp": "2025-12-04T15:47:52.869161+00:00", "meta": {"OBJECT_NAME": "STARLINK-35696", "OBJECT_ID": "2025-263E", "EPOCH": "2025-12-04T08:00:01.999872", "MEAN_MOTION": 15.67843779, "ECCENTRICITY": 0.00016903, "INCLINATION": 42.9992, "RA_OF_ASC_NODE": 174.6124, "ARG_OF_PERICENTER": 262.9492, "MEAN_ANOMALY": 83.1925, "EPHEMERIS_TYPE": 0, "CLASSIFICATION_TYPE": "U", "NORAD_CAT_ID": 66489, "ELEMENT_SET_NO": 999, "REV_AT_EPOCH": 428, "BSTAR": -0.01990007, "MEAN_MOTION_DOT": -0.01988075, "MEAN_MOTION_DDOT": 0}, "tle": {"line1": "1 66489U 25263E   25338.33335648 -.01988075  00000+0 -19900-1 0  9996", "line2": "2 66489  42.9992 174.6124 0001690 262.9492  83.1925 15.67843779  4284"}}, "geometry": {"type": "Point", "coordinates": [-171.45255097136032, 14.306715008115395]}}, {"type": "Feature", "properties": {"norad_id": 66490, "name": "STARLINK-35693", "group": "last-30-days", "lat": 15.559594984041755, "lon": -169.95416798795753, "alt_km": 367.26647260181744, "timestamp": "2025-12-04T15:47:52.869172+00:00", "meta": {"OBJECT_NAME": "STARLINK-35693", "OBJECT_ID": "2025-263F", "EPOCH": "2025-12-04T08:00:01.999872", "MEAN_MOTION": 15.67843756, "ECCENTRICITY": 0.0001709, "INCLINATION": 42.9991, "RA_OF_ASC_NODE": 174.6075, "ARG_OF_PERICENTER": 263.4837, "MEAN_ANOMALY": 84.5749, "EPHEMERIS_TYPE": 0, "CLASSIFICATION_TYPE": "U", "NORAD_CAT_ID": 66490, "ELEMENT_SET_NO": 999, "REV_AT_EPOCH": 428, "BSTAR": -0.019898131, "MEAN_MOTION_DOT": -0.01987918, "MEAN_MOTION_DDOT": 0}, "tle": {"line1": "1 66490U 25263F   25338.33335648 -.01987918  00000+0 -19898-1 0  9999", "line2": "2 66490  42.9991 174.6075 0001709 263.4837  84.5749 15.67843756  4284"}}, "geometry": {"type": "Point", "coordinates": [-169.95416798795753, 15.559594984041755]}}, {"type": "Feature", "properties": {"norad_id": 66491, "name": "STARLINK-35663", "group": "last-30-days", "lat": 18.03347737334134, "lon": -166.90082290567685, "alt_km": 366.92400577847457, "timestamp": "2025-12-04T15:47:52.869184+00:00", "meta": {"OBJECT_NAME": "STARLINK-35663", "OBJECT_ID": "2025-263G", "EPOCH": "2025-12-04T08:00:01.999872", "MEAN_MOTION": 15.67842446, "ECCENTRICITY": 0.00016667, "INCLINATION": 42.9992, "RA_OF_ASC_NODE": 174.5977, "ARG_OF_PERICENTER": 264.3857, "MEAN_ANOMALY": 87.5085, "EPHEMERIS_TYPE": 0, "CLASSIFICATION_TYPE": "U", "NORAD_CAT_ID": 66491, "ELEMENT_SET_NO": 999, "REV_AT_EPOCH": 428, "BSTAR": -0.019885756, "MEAN_MOTION_DOT": -0.01986701, "MEAN_MOTION_DDOT": 0}, "tle": {"line1": "1 66491U 25263G   25338.33335648 -.01986701  00000+0 -19886-1 0  9996", "line2": "2 66491  42.9992 174.5977 0001666 264.3857  87.5085 15.67842446  4281"}}, "geometry": {"type": "Point", "coordinates": [-166.90082290567685, 18.03347737334134]}}, {"type": "Feature", "properties": {"norad_id": 66492, "name": "STARLINK-35673", "group": "last-30-days", "lat": 19.25253336329761, "lon": -165.3422981540931, "alt_km": 366.85245545838643, "timestamp": "2025-12-04T15:47:52.869195+00:00", "meta": {"OBJECT_NAME": "STARLINK-35673", "OBJECT_ID": "2025-263H", "EPOCH": "2025-12-04T08:00:01.999872", "MEAN_MOTION": 15.67844166, "ECCENTRICITY": 0.00018854, "INCLINATION": 42.9993, "RA_OF_ASC_NODE": 174.5929, "ARG_OF_PERICENTER": 264.1905, "MEAN_ANOMALY": 89.6172, "EPHEMERIS_TYPE": 0, "CLASSIFICATION_TYPE": "U", "NORAD_CAT_ID": 66492, "ELEMENT_SET_NO": 999, "REV_AT_EPOCH": 428, "BSTAR": -0.019892292, "MEAN_MOTION_DOT": -0.01987579, "MEAN_MOTION_DDOT": 0}, "tle": {"line1": "1 66492U 25263H   25338.33335648 -.01987579  00000+0 -19892-1 0  9998", "line2": "2 66492  42.9993 174.5929 0001885 264.1905  89.6172 15.67844166  4286"}}, "geometry": {"type": "Point", "coordinates": [-165.3422981540931, 19.25253336329761]}}, {"type": "Feature", "properties": {"norad_id": 66493, "name": "STARLINK-35597", "group": "last-30-days", "lat": 20.458213982327685, "lon": -163.76048271129093, "alt_km": 366.6342946537088, "timestamp": "2025-12-04T15:47:52.869205+00:00", "meta": {"OBJECT_NAME": "STARLINK-35597", "OBJECT_ID": "2025-263J", "EPOCH": "2025-12-04T08:00:01.999872", "MEAN_MOTION": 15.67845232, "ECCENTRICITY": 0.00017833, "INCLINATION": 42.9993, "RA_OF_ASC_NODE": 174.5879, "ARG_OF_PERICENTER": 265.4702, "MEAN_ANOMALY": 90.2554, "EPHEMERIS_TYPE": 0, "CLASSIFICATION_TYPE": "U", "NORAD_CAT_ID": 66493, "ELEMENT_SET_NO": 999, "REV_AT_EPOCH": 428, "BSTAR": -0.019915468, "MEAN_MOTION_DOT": -0.0198961, "MEAN_MOTION_DDOT": 0}, "tle": {"line1": "1 66493U 25263J   25338.33335648 -.01989610  00000+0 -19915-1 0  9993", "line2": "2 66493  42.9993 174.5879 0001783 265.4702  90.2554 15.67845232  4284"}}, "geometry": {"type": "Point", "coordinates": [-163.76048271129093, 20.458213982327685]}}, {"type": "Feature", "properties": {"norad_id": 66494, "name": "STARLINK-35689", "group": "last-30-days", "lat": 16.80260786744135, "lon": -168.43660830643282, "alt_km": 367.1121607973828, "timestamp": "2025-12-04T15:47:52.869215+00:00", "meta": {"OBJECT_NAME": "STARLINK-35689", "OBJECT_ID": "2025-263K", "EPOCH": "2025-12-04T08:00:01.999872", "MEAN_MOTION": 15.67844831, "ECCENTRICITY": 0.00017767, "INCLINATION": 42.9992, "RA_OF_ASC_NODE": 174.603, "ARG_OF_PERICENTER": 264.4992, "MEAN_ANOMALY": 85.4758, "EPHEMERIS_TYPE": 0, "CLASSIFICATION_TYPE": "U", "NORAD_CAT_ID": 66494, "ELEMENT_SET_NO": 999, "REV_AT_EPOCH": 428, "BSTAR": -0.019914626, "MEAN_MOTION_DOT": -0.01989502, "MEAN_MOTION_DDOT": 0}, "tle": {"line1": "1 66494U 25263K   25338.33335648 -.01989502  00000+0 -19915-1 0  9994", "line2": "2 66494  42.9992 174.6030 0001776 264.4992  85.4758 15.67844831  4282"}}, "geometry": {"type": "Point", "coordinates": [-168.43660830643282, 16.80260786744135]}}, {"type": "Feature", "properties": {"norad_id": 66495, "name": "STARLINK-35832", "group": "last-30-days", "lat": 21.64895525432672, "lon": -162.1540489730804, "alt_km": 366.4388003865588, "timestamp": "2025-12-04T15:47:52.869225+00:00", "meta": {"OBJECT_NAME": "STARLINK-35832", "OBJECT_ID": "2025-263L", "EPOCH": "2025-12-04T08:00:01.999872", "MEAN_MOTION": 15.67843996, "ECCENTRICITY": 0.00017142, "INCLINATION": 42.9993, "RA_OF_ASC_NODE": 174.583, "ARG_OF_PERICENTER": 266.1977, "MEAN_ANOMALY": 91.4459, "EPHEMERIS_TYPE": 0, "CLASSIFICATION_TYPE": "U", "NORAD_CAT_ID": 66495, "ELEMENT_SET_NO": 999, "REV_AT_EPOCH": 428, "BSTAR": -0.019896132, "MEAN_MOTION_DOT": -0.01987764, "MEAN_MOTION_DDOT": 0}, "tle": {"line1": "1 66495U 25263L   25338.33335648 -.01987764  00000+0 -19896-1 0  9991", "line2": "2 66495  42.9993 174.5830 0001714 266.1977  91.4459 15.67843996  4281"}}, "geometry": {"type": "Point", "coordinates": [-162.1540489730804, 21.64895525432672]}}, {"type": "Feature", "properties": {"norad_id": 66496, "name": "STARLINK-35909", "group": "last-30-days", "lat": 22.824178969853225, "lon": -160.52060081365718, "alt_km": 366.3362366170395, "timestamp": "2025-12-04T15:47:52.869238+00:00", "meta": {"OBJECT_NAME": "STARLINK-35909", "OBJECT_ID": "2025-263M", "EPOCH": "2025-12-04T08:00:01.999872", "MEAN_MOTION": 15.67845553, "ECCENTRICITY": 0.00018232, "INCLINATION": 42.9993, "RA_OF_ASC_NODE": 174.5781, "ARG_OF_PERICENTER": 265.9978, "MEAN_ANOMALY": 93.5611, "EPHEMERIS_TYPE": 0, "CLASSIFICATION_TYPE": "U", "NORAD_CAT_ID": 66496, "ELEMENT_SET_NO": 999, "REV_AT_EPOCH": 428, "BSTAR": -0.019913858, "MEAN_MOTION_DOT": -0.01989525, "MEAN_MOTION_DDOT": 0}, "tle": {"line1": "1 66496U 25263M   25338.33335648 -.01989525  00000+0 -19914-1 0  9990", "line2": "2 66496  42.9993 174.5781 0001823 265.9978  93.5611 15.67845553  4280"}}, "geometry": {"type": "Point", "coordinates": [-160.52060081365718, 22.824178969853225]}}, {"type": "Feature", "properties": {"norad_id": 66497, "name": "STARLINK-35899", "group": "last-30-days", "lat": 23.982553475033562, "lon": -158.85871678577848, "alt_km": 366.16503306521645, "timestamp": "2025-12-04T15:47:52.869248+00:00", "meta": {"OBJECT_NAME": "STARLINK-35899", "OBJECT_ID": "2025-263N", "EPOCH": "2025-12-04T08:00:01.999872", "MEAN_MOTION": 15.67829763, "ECCENTRICITY": 0.00017396, "INCLINATION": 42.9992, "RA_OF_ASC_NODE": 174.5729, "ARG_OF_PERICENTER": 265.7419, "MEAN_ANOMALY": 95.7465, "EPHEMERIS_TYPE": 0, "CLASSIFICATION_TYPE": "U", "NORAD_CAT_ID": 66497, "ELEMENT_SET_NO": 999, "REV_AT_EPOCH": 428, "BSTAR": -0.019744748, "MEAN_MOTION_DOT": -0.01973434, "MEAN_MOTION_DDOT": 0}, "tle": {"line1": "1 66497U 25263N   25338.33335648 -.01973434  00000+0 -19745-1 0  9995", "line2": "2 66497  42.9992 174.5729 0001739 265.7419  95.7465 15.67829763  4282"}}, "geometry": {"type": "Point", "coordinates": [-158.85871678577848, 23.982553475033562]}}, {"type": "Feature", "properties": {"norad_id": 66498, "name": "STARLINK-35907", "group": "last-30-days", "lat": 25.122633835722002, "lon": -157.16659432585905, "alt_km": 366.06384047225947, "timestamp": "2025-12-04T15:47:52.869258+00:00", "meta": {"OBJECT_NAME": "STARLINK-35907", "OBJECT_ID": "2025-263P", "EPOCH": "2025-12-04T08:00:01.999872", "MEAN_MOTION": 15.67831025, "ECCENTRICITY": 0.00018171, "INCLINATION": 42.9993, "RA_OF_ASC_NODE": 174.5681, "ARG_OF_PERICENTER": 265.2343, "MEAN_ANOMALY": 98.1707, "EPHEMERIS_TYPE": 0, "CLASSIFICATION_TYPE": "U", "NORAD_CAT_ID": 66498, "ELEMENT_SET_NO": 999, "REV_AT_EPOCH": 428, "BSTAR": -0.019770243, "MEAN_MOTION_DOT": -0.01975833, "MEAN_MOTION_DDOT": 0}, "tle": {"line1": "1 66498U 25263P   25338.33335648 -.01975833  00000+0 -19770-1 0  9999", "line2": "2 66498  42.9993 174.5681 0001817 265.2343  98.1707 15.67831025  4289"}}, "geometry": {"type": "Point", "coordinates": [-157.16659432585905, 25.122633835722002]}}]}